{
    "links": {
        "self": "http://www.neowsapp.com/rest/v1/neo/3748229?api_key=iIulBulltgU6a56xZRHN4H3l9WmuAYTsLGpBGhQ2"
    },
    "id": "3748229",
    "neo_reference_id": "3748229",
    "name": "(2016 DA31)",
    "designation": "2016 DA31",
    "nasa_jpl_url": "http://ssd.jpl.nasa.gov/sbdb.cgi?sstr=3748229",
    "absolute_magnitude_h": 29.9,
    "estimated_diameter": {
        "kilometers": {
            "estimated_diameter_min": 0.0027832677,
            "estimated_diameter_max": 0.0062235757
        },
        "meters": {
            "estimated_diameter_min": 2.7832676807,
            "estimated_diameter_max": 6.2235757337
        },
        "miles": {
            "estimated_diameter_min": 0.0017294418,
            "estimated_diameter_max": 0.0038671495
        },
        "feet": {
            "estimated_diameter_min": 9.1314559376,
            "estimated_diameter_max": 20.41855621
        }
    },
    "is_potentially_hazardous_asteroid": false,
    "close_approach_data": [
        {
            "close_approach_date": "2016-02-29",
            "close_approach_date_full": "2016-Feb-29 13:45",
            "epoch_date_close_approach": 1456753500000,
            "relative_velocity": {
                "kilometers_per_second": "12.9188510936",
                "kilometers_per_hour": "46507.86393714",
                "miles_per_hour": "28898.1780113857"
            },
            "miss_distance": {
                "astronomical": "0.0012634987",
                "lunar": "0.4915009943",
                "kilometers": "189016.714267769",
                "miles": "117449.5400384522"
            },
            "orbiting_body": "Moon"
        },
        {
            "close_approach_date": "2016-02-29",
            "close_approach_date_full": "2016-Feb-29 15:56",
            "epoch_date_close_approach": 1456761360000,
            "relative_velocity": {
                "kilometers_per_second": "13.8805699481",
                "kilometers_per_hour": "49970.0518132133",
                "miles_per_hour": "31049.446916938"
            },
            "miss_distance": {
                "astronomical": "0.0013395559",
                "lunar": "0.5210872451",
                "kilometers": "200394.709385933",
                "miles": "124519.4983665554"
            },
            "orbiting_body": "Earth"
        },
        {
            "close_approach_date": "2071-07-29",
            "close_approach_date_full": "2071-Jul-29 10:15",
            "epoch_date_close_approach": 3205390500000,
            "relative_velocity": {
                "kilometers_per_second": "16.4809804046",
                "kilometers_per_hour": "59331.5294567368",
                "miles_per_hour": "36866.3050671596"
            },
            "miss_distance": {
                "astronomical": "0.1404555959",
                "lunar": "54.6372268051",
                "kilometers": "21011857.976220733",
                "miles": "13056163.1240947954"
            },
            "orbiting_body": "Venus"
        },
        {
            "close_approach_date": "2071-09-03",
            "close_approach_date_full": "2071-Sep-03 10:03",
            "epoch_date_close_approach": 3208500180000,
            "relative_velocity": {
                "kilometers_per_second": "12.9120202179",
                "kilometers_per_hour": "46483.2727843716",
                "miles_per_hour": "28882.898025378"
            },
            "miss_distance": {
                "astronomical": "0.0271803285",
                "lunar": "10.5731477865",
                "kilometers": "4066119.249500295",
                "miles": "2526569.343062271"
            },
            "orbiting_body": "Earth"
        }
    ],
    "orbital_data": {
        "orbit_id": "5",
        "orbit_determination_date": "2017-04-06 08:27:58",
        "first_observation_date": "2016-02-28",
        "last_observation_date": "2016-02-29",
        "data_arc_in_days": 1,
        "observations_used": 14,
        "orbit_uncertainty": "8",
        "minimum_orbit_intersection": "4.35092E-6",
        "jupiter_tisserand_invariant": "4.979",
        "epoch_osculation": "2457447.5",
        "eccentricity": ".4499796487760936",
        "semi_major_axis": "1.270346563215397",
        "inclination": ".02234662411369871",
        "ascending_node_longitude": "339.4476737357962",
        "orbital_period": "522.9759919612392",
        "perihelion_distance": ".6987164628758148",
        "perihelion_argument": "268.0347329583822",
        "aphelion_distance": "1.841976663554978",
        "perihelion_time": "2457503.706531573825",
        "mean_anomaly": "321.309215570881",
        "mean_motion": ".6883681192514124",
        "equinox": "J2000",
        "orbit_class": {
            "orbit_class_type": "APO",
            "orbit_class_description": "Near-Earth asteroid orbits which cross the Earth’s orbit similar to that of 1862 Apollo",
            "orbit_class_range": "a (semi-major axis) > 1.0 AU; q (perihelion) < 1.017 AU"
        }
    },
    "is_sentry_object": false
}